ONEWEB-0444             
1 51638U 22012S   24061.45428023  .00000747  00000+0  21036-2 0  9992
2 51638  87.8953 202.7066 0001733  96.5348 263.5977 13.10373661 99623
ONEWEB-0445             
1 51639U 22012T   24061.39903422 -.00000064  00000+0 -22020-3 0  9996
2 51639  87.8944 202.6947 0001569 115.2091 244.9199 13.10369972 99621
ONEWEB-0446             
1 51640U 22012U   24061.45263762  .00000739  00000+0  20790-2 0  9999
2 51640  87.8959 202.6984 0001429 110.6650 249.4630 13.10382248 99615
ONEWEB-0448             
1 51641U 22012V   24061.45752877  .00000784  00000+0  22098-2 0  9993
2 51641  87.8956 202.6985 0001782  98.3511 261.7819 13.10373648 99580
ONEWEB-0449             
1 51642U 22012W   24061.46240373  .00000641  00000+0  17997-2 0  9992
2 51642  87.8949 202.6989 0001881 108.5670 251.5662 13.10372493 99598
ONEWEB-0451             
1 51643U 22012X   24061.55641975  .00000039  00000+0  68031-4 0  9994
2 51643  87.9256 172.4730 0001969 102.7227 257.4124 13.17650775103357
ONEWEB-0452             
1 51644U 22012Y   24061.55484468  .00000039  00000+0  66822-4 0  9993
2 51644  87.9264 172.5068 0002256 107.7248 252.4130 13.17650072103363
ONEWEB-0455             
1 51645U 22012Z   24061.50528458  .00000356  00000+0  15105-3 0  9996
2 51645  87.5376 148.2752 0016031 343.5761  16.4908 14.22744396106993
